;Longitude,Latitude,Name,Address 1
15.81818,47.10118,"A33 IDS Sinabelkirchen 4472 - Tankstelle HLD; A-8261; "
13.42738,48.39556,"A34 IDS Suben 4473 - Andiesen 17; A-4774; "
13.69684,46.5532,"A35 IDS Arnoldstein 4477 - Maurer Spedition & Transporte GmbH; A-9601; "
13.38255,47.36235,"A36 IDS Flachau 4476 - Tankstelle Austropetrol; A-5542; "
15.4082,48.18893,"A37 IDS Loosdorf 4478 - Tankstelle Austropetrol; A-3382; "
14.04714,48.07531,"A38 IDS Sattledt 4479 - BP Tankstelle; A-4642; "
12.9958,47.79358,"A39 IDS Salzburg 4480 - BP Tankstelle; A-5020; "
12.03026,47.48257,"A40 IDS Wörgl 2 4481 - Transped; A-6300; "
9.75124,47.54496,"A41 IDS Hörbranz 1 4482 - Scheier; A-6912; "
9.74904,47.54246,"A42 IDS Hörbranz 2 4483 - Scheier; A-6912; "
16.334,48.0719,"A44 IDS Wiener Neudorf 4485 - IZ-Noe-Sued-Strasse 14; A-2355; "
13.0866,47.73467,"A45 IDS Urstein 4486 - Tankstelle Austropetrol; A-5412; "
13.01577,47.86413,"A46 IDS Anthering 4487 - Tankstelle Austropetrol; A-5102; "
11.8807616,47.4370703,"A48 IDS Brixlegg 4489 - LOMO Autohof; A-6230; "
13.6442349,46.6957545,"A49 IDS Paternion 4490 - Gewerbepark; 9711; "
13.0595488,47.8165162,"A50 IDS Salzburg 2 4491 - Gnigler Straße 52; 5020; "
12.1512709,47.5657183,"A51 IDS Kufstein 4492 - Inntaler Logistik Park; A-6330; "
4.3871,51.2739,"B2 IDS Antwerpen 0616 - Transcontinentaalweg 12; B-2030; "
4.44197,50.9226,"B6 IDS Vilvoorde 0609 - Luchthavenlaan 18; B-1800; "
3.73005,50.45152,"B11 IDS Pommeroeul 0611 - Chaussée de Belle Vue; B-7358; "
4.90632,50.47511,"B12 IDS Namur 0612 - Route de Hannut 88; B-5004; "
5.62645,50.69157,"B13 IDS Herstal 0607 - Rue de Hermée 170; B-4040; "
5.48099,50.92612,"B16 IDS Genk 0617 - Q8 Service Station; B-3600; "
5.3945,50.68945,"B18 IDS Remicourt 0619 - 10; Chaussée Verte; B-4350; "
4.55306,51.20798,"B23 IDS Ranst Sud 0624 - Q8 Service Station; B-2520; "
4.549,51.2094,"B24 IDS Ranst Nord 0625 - Q8 Service Station; B-2520; "
4.727,51.4728,"B25 IDS Meer 0626 - Meer Truckstop; B-2321; "
5.32563,50.59869,"B26 IDS Verlaine Sud 0627 - Q8 Service Station; B-4537; "
5.32563,50.59869,"B27 IDS Verlaine Nord 0628 - Q8 Service Station; B-4537; "
4.7903,50.60068,"B28 IDS Aische Ouest 0629 - Q8 Service Station; B-5310; "
5.7023,50.9482,"B30 IDS Maasmechelen 0621 - Industriezone; B-3630; "
4.353,50.4808,"B32 IDS Courcelles 0643 - ZI Courcelles; B-6180; "
4.3216,51.01345,"B33 IDS Londerzeel 0635 - Industriepark; B-1840; "
5.2065,50.81448,"B34 IDS Sint-Truiden 0636 - Industriezone Schurhovenveld 3020; B-3800; "
2.6353,50.8135,"B35 IDS Watou 0634 - Callicannesweg 22; B-8978; "
5.68078,50.51319,"B36 IDS Sprimont Ouest 0675 - Q8 Service Station; B-4140; "
4.1334,51.0735,"B37 IDS Hamme 0640 - Industriezone Zwaarveld 26; B-9220; "
5.68078,50.51319,"B40 IDS Sprimont Est 0674 - Q8 Service Station; B-4140; "
5.9982,50.6525,"B47 IDS Lontzen 0658 - Rue Mitoyenne; B-4710; "
4.929,51.2955,"B48 IDS Turnhout 0659 - Schietstandlaan 2; B-2300; "
5.1658,51.0642,"B49 IDS Beringen-Paal 0657 - IZ Ravenshout 7130; B-3580; "
3.34087,50.61883,"B50 IDS Froyennes Sud 0676 - Q8 service Station; B-7500; "
3.33932,50.62055,"B51 IDS Froyennes Nord 0677 - Q8 Service Station; B-7500; "
4.28744,50.3599,"B52 IDS Thuin 0650 - Zoning Industriel; B-6530; "
4.528,49.9685,"B53 IDS Couvin 0660 - B-5660; "
3.18245,50.93178,"B54 IDS Izegem 0661 - Noordkaai 26; B-8870; "
2.67683,51.06516,"B55 IDS Veurne 0664 - Welvaartstraat 7; B-8630; "
3.1831,51.3204,"B58 IDS Zeebrugge 0662 - Kielstraat 2; B-8380; "
4.094039,50.490392,"B59 IDS Thieu Nord 0673 - E42 direction Paris; B-7070; "
4.097396,50.488204,"B60 IDS Thieu Sud 0672 - E42 direction Brussels; B-7070; "
4.31456,51.193637,"B61 IDS Kruibeke 0670 - Industriezone; B-9150; "
3.33398,50.60681,"B62 IDS Tournai Ouest 0669 - Zoning Orcq; B-7522; "
3.8298022,51.1888126,"B63 IDS Zelzate 0668 - Industriepark Rosteyne 15; 9060; "
3.441584,50.8679646,"B64 IDS Waregem 0680 - Eugène Bekaertlaan 12; 8790; "
23.797659,43.53743,"BG1 IDS Altimir 4360 - Altimir; 3251; "
22.822179,43.912647,"BG2 IDS Dunavci 4361 - Dunavtsi E79; 3740; "
26.551496,42.401113,"BG3 IDS Elhovo 4362 - Okop; 8700; "
23.1333087,42.806484,"BG4 IDS Herakovo 4363 - Herakovo E80; 2237; "
26.029522,43.884386,"BG5 IDS Russe 4364 - Ruse; Tutrakan str. 92; 7000; "
23.473371,42.706811,"BG6 IDS Sofia 4365 - Dolno Bogrov E79; 1000; "
23.2003,41.260599,"BG7 IDS Marikostinovo 4366 - Highway E79 (Sofia; Kulata); 2870; "
26.051841,41.514121,"BG8 IDS Lyubimets 4367 - Highway A3/E80 (Svilengrad; Plodiv); 6550; "
14.21405,50.03393,"CZ1 IDS Drahelcice 4201 - Benzina Service Station; 25219; "
14.21654,50.03309,"CZ2 IDS Rudná 4202 - Benzina Service Station; 25219; "
16.87916,49.19109,"CZ3 IDS Rousínov 4203 - Benzina Service Station; 68301 Vyskov; "
16.2776,49.26974,"CZ4 IDS Krizu 1 (Brno-Praha) 4204 - Benzina Service Station; 59501; "
16.27922,49.27059,"CZ5 IDS Krizu 2 (Praha-Brno) 4205 - Benzina Service Station; 59501; "
14.92539,50.43281,"CZ6 IDS Kosmonosy 4206 - Benzina Service Station; 29306 Mlada Boleslav; "
14.08114,50.48104,"CZ7 IDS Sirejovice 4207 - Benzina Service Station; 41121; "
13.4233,49.6988,"CZ8 IDS Plzen 4208 - Benzina Service Station; 32600; "
14.0651699,50.5072121,"CZ9 IDS Lovosice 4209 - Lukavecka 1115; 41002; "
17.1035484,49.6613769,"CZ10 IDS Uncovice 4210 - Uncovice 126; 783 31; "
10.45131,57.31308,"DK2 IDS Sæby 2232 - Trafikcenter Sæby Syd 1; DK-9300; "
8.72731,56.96169,"DK7 IDS Thisted 2257 - Im Stiholt A/S; DK-7700; "
9.05054,56.55885,"DK12 IDS Skive 2275 - Spedition Freja A/S; DK-7800; "
9.37928,56.44874,"DK16 IDS Viborg 2191 - Holstebrovej 48; 8800; "
9.15899,55.47382,"DK21 IDS Vejen 3426 - K Hansen Transport A/S; DK-6600; "
9.43919,55.50902,"DK23 IDS Kolding 6060 - Kolding Lastvognscenter ApS; DK-6000; "
9.35038,54.82979,"DK28 IDS Padborg 3422 - IDS Truck Center; DK-6330; "
12.51558,56.00152,"DK33 IDS Kvistgaard 1123 - F24; DK-3490; "
12.09409,55.62645,"DK34 IDS Roskilde Nord 6057 - Q8 Service Station; DK-4000; "
12.3996,55.64338,"DK37 IDS Brøndby 6054 - Q8 Service Station; DK-2605; "
11.64246,55.70979,"DK39 IDS Tuse Nord 1529 - Q8 Service Station; DK-4300; "
9.62711,55.54152,"DK44 IDS Taulov 3435 - Eske Hedegårdsvej/Stakkesvang; DK-7000; "
12.21467,55.54543,"DK47 IDS Karlstrup 1528 - Q8 Service Station; DK-2690; "
9.97826,57.58734,"DK48 IDS Hirtshals 2195 - F24 automat; DK-9850; "
12.47087,55.61459,"DK51 IDS Avedøre 1124 - Q8 Service Station; DK-2650; "
10.05625,57.04201,"DK53 IDS Aalborg 2241 - NTC Transport Center; DK-9220; "
10.57069,55.35768,"DK55 IDS Langeskov 3129 - Bergholdt Turistfart; DK-5550; "
8.93629,56.12753,"DK59 IDS Herning 3432 - Midt-Vest Servicecenter; DK-7400; "
10.18375,55.3959,"DK61 IDS Kildebjerg 3124 - Q8 Service Station; DK-5492; "
9.74124,56.84058,"DK62 IDS Himmerland 2270 - Q8 Service Station; DK-9541; "
9.32984,54.82639,"DK63 IDS Frøslev Øst 3490 - Q8 Service Station; DK-6330; "
9.33262,54.83191,"DK64 IDS Frøslev Vest 3480 - Q8 Service Station; DK-6330; "
10.06833,56.4179,"DK67 IDS Randers 2280 - SJ Transport; DK-8900; "
9.80521,56.64909,"DK72 IDS Hobro 2209 - Havrevænget 10; DK-9500; "
11.11878,55.34767,"DK73 IDS Korsør 1524 - Q8 Service Station; DK-4220; "
11.90929,54.89958,"DK76 IDS Cargo Syd 1534 - Cargo Syd Transport Center; DK-4840; "
9.78077,55.88821,"DK77 IDS Horsens Vest 2400 - Q8 Service Station; DK-8700; "
12.42712,55.65417,"DK78 IDS Brøndby 2401 - F24; DK-2605; "
8.43289,55.46351,"DK79 IDS Esbjerg 3234 - DSV Road A/S; DK-6700; "
9.58903,55.74842,"DK80 IDS Vejle Gateway E45 1536 - GateWay E45; DK-7100; "
10.07443,56.1615,"DK81 IDS Århus 2286 - Danske Fragtmænd; DK-8220; "
12.1522,55.3809,"DK85 IDS Høje Tåstrup Transportcenter 6075 - Estlands Allé; 2630; "
4.84088,47.01148,"F1 IDS Beaune 0101 - Zac de la Chartreuse; F-21200; "
5.25922,46.17615,"F2 IDS Bourg / Montagnat 0102 - Le Truck de Noirefontaine; F-01250; "
1.8444,47.95128,"F3 IDS Orleans / Saran 0103 - Centre Routier Ormes Saran; F-45400; "
5.21364,43.49674,"F4 IDS Rognac 0104 - RN 113; F-13340; "
-0.5525,44.8875,"F5 IDS Bordeaux / Le Lac 0105 - Centre Routier Bordeaux/Le Lac; F-33300; "
6.21401,49.22659,"F6 IDS Metz / Ennery 0106 - Centre Routier Garolor Ennery; F-57365; "
4.79939,44.75456,"F7 IDS Loriol / Centre Routier 0107 - Centre Routier de Loriol; F-26270; "
1.89984,50.96598,"F8 IDS Calais 0108 - Z.A des Dunes; F-62100; "
2.81059,42.52221,"F9 IDS Le Boulou /Perpignan 0109 - Autoport du Boulou; F-66160; "
4.549,48.3844,"F10 IDS Saint-Dizier 0110 - Scania; F-52100; "
0.9303,49.34394,"F11 IDS Rouen / Maison-Brulée 0111 - Carrefour Maison-Brulée; F-27310; "
2.97978,50.48336,"F12 IDS Libercourt 0112 - ZI les Botiaux-Lavanord; F-62820; "
2.55606,48.64447,"F13 IDS Paris sud / Lieusaint 0113 - Garonor Sénart; F-77127; "
0.1752,48.0365,"F14 IDS Le Mans-Nord 0114 - Centre Routier du Mans; F-72650; "
6.51702,43.47758,"F15 IDS Le Muy 0115 - ZAC Eurosud; F-83490; "
0.180556,46.132222,"F16 IDS Maisons-Blanches / Limalonges 0116 - ZAC des Maisons Blanches; F-79190; "
2.70024,49.31957,"F17 IDS Paris Nord / Chevrières 0117 - Avenue de Berlin; F-60126; "
1.39381,43.72133,"F18 IDS Toulouse / Saint-Jory 0118 - Saint -Jory; F-31150; "
2.96857,46.32448,"F20 IDS Montmarault 0120 - Z.A. Du Grand Champ; F-03390; "
7.37483,48.0944,"F21 IDS Colmar 0121 - Z.I. Nord; F-68000; "
1.341944,46.021389,"F22 IDS Limoges-Nord / Razès 0122 - Relais du Pécher; F-87640; "
-1.53078,48.10764,"F23 IDS Rennes / Noyal 0132 - General Trailers; F-35530; "
5.89447,45.58421,"F24 IDS Chambéry 0134 - Ets Savoy Pneus / Point S; F-73000; "
0.20597,49.48719,"F25 IDS Le Havre / Centre Routier 0136 - Route Industrielle; F-76700; "
3.20191,46.70379,"F26 IDS Tresnay / Moulins 0138 - Restaurant Routier Le Relais 7; F-58240; "
4.33524,43.8132,"F27 IDS Nimes-Ouest 0140 - Centre Routier; F-30000; "
-1.45186,43.49329,"F28 IDS Bayonne 0142 - Chemin de Bergeret; F-64100; "
-2.97374,48.531,"F29 IDS Saint Brieuc / Plouagat 0144 - Restaurant Routier Au Triskel; F-22170; "
4.06507,49.23111,"F31 IDS Reims / Centre Routier 0123 - Volvo Trucks; F-51100; "
-1.18655,47.39176,"F32 IDS Ancenis 1050 - Station Avia; 44150; "
-1.96685,47.38147,"F34 IDS Nantes le Tillon 1052 - Le Tillon; 44260; "
3.09627,48.06174,"F35 IDS Courtenay 1054 - Centre Routier de Courtenay; 89150; "
-1.49901,49.51012,"F36 IDS Valognes 1056 - Ets Michel Rateau; 50700; "
5.28531,47.94116,"F37 IDS Langres 1058 - Centre Routier; 52260; "
0.60257,44.16531,"F39 IDS Agen 1063 - Centre Routier de Gaussens; 47250; "
4.27881,45.52888,"F40 IDS Saint-Etienne 1065 - Ets Granjon; 42480; "
1.43766,48.35697,"F41 IDS Thivars 1067 - Z.A du Bois Gueslin; 28630; "
1.4925,45.1855278,"F42 IDS Brive 1069 - ZAC Logistique de la Gare; 19270; "
7.79186,48.66991,"F45 IDS Strasbourg 1075 - Concession DAF Ets Shindler; 67720; "
6.7529,45.9272,"F46 IDS Chamonix Mont-Blanc 1080 - Aire du Châtelard; F-74190; "
3.21762,43.29562,"F47 IDS Béziers 1082 - Truck Etape; 34350; "
4.9260117,45.668841,"F48 IDS Lyon Corbas 0177 - Route de Mions; 69960; "
2.3975847,49.8773651,"F49 IDS Amiens 0147 - Avenue de la Ville Idéale; 80440; "
1.3692,43.778,"F50 IDS Toulouse Castelnau 1084 - Fal Distri; 31620; "
-0.50623,46.4296,"F51 IDS Niort Canepetière 1085 - E.Leclerc; 79160; "
-0.50623,46.4296,"F52 IDS Niort Chateaudrie 1086 - E.Leclerc; 79160; "
5.8617,48.2681,"F53 IDS Achères Est 1087 - E.Leclerc; 77760; "
5.8617,48.2681,"F54 IDS Achères Ouest 1088 - E.Leclerc; 77760; "
10.61414,53.86171,"D1 IDS Lübeck 0401 - IDS-Truck Center Lübeck; D-23556; "
7.5539,47.81121,"D2 IDS Neuenburg 0402 - IDS-Truck Center Neuenburg; D; 79395; "
7.28796,51.55697,"D5 IDS Castrop 0405 - IDS Truck Center; D-44579; "
10.264,49.24771,"D8 IDS Wörnitz 0408 - IDS Truck Center Wörnitz; D-91637; "
8.20525,49.69923,"D9 IDS Gundersheim 0409 - IDS Truck Center Gundersheim; D-67598; "
11.54541,49.40524,"D10 IDS Alfeld 0410 - Q8 Kiessling; D-92283; "
10.46992,49.76797,"D11 IDS Geiselwind 0411 - IDS Truck Center Geiselwind; D-96160; "
12.78838,52.80371,"D12 IDS Fehrbellin 0412 - An der Plantage 7; D-16833; "
9.5243,51.28308,"D13 IDS Kassel 0413 - IDS-Truck Center Kassel; D-34253; "
11.6213,50.04374,"D15 IDS Bad Berneck 0415 - IDS-Truck Center Bad Berneck; D-95502; "
7.0616,52.32021,"D16 IDS Gildehaus 0416 - Industriepark A30; D-48455; "
8.17755,52.72704,"D17 IDS Vechta 0417 - IDS-Truck Center Bakum; D-49456; "
12.28457,52.25344,"D20 IDS Ziesar 0420 - Gewerbepark Ziesar; D-14793; "
10.86698,48.41086,"D22 IDS Augsburg 0422 - Otto-Hahn-Strasse 8; D-86369; "
9.68933,52.85419,"D23 IDS Fallingbostel 0423 - Robert-Koch-Strasse 1; D-29683; "
6.83231,50.91514,"D24 IDS Frechen 0424 - LKW-Tank Badziong; D-50226; "
13.04688,48.7666,"D26 IDS Hengersberg 0426 - Donaustrasse 17 1/4; D-94491; "
7.9197,48.53546,"D27 IDS Willstätt-Sand 0427 - Tankhof Grün; D-77731; "
12.2964,51.41128,"D28 IDS Radefeld 0428 - Güterverteilzentrum; D-04158; "
11.49689,48.70945,"D29 IDS Manching 0429 - Tankstelle Treffer; D-85077; "
11.85788,50.89474,"D30 IDS Hermsdorf 0430 - Hermsdorfer Höhe; D-07629; "
12.23026,49.93764,"D31 IDS Mitterteich 0431 - Gottlieb-Daimler Strasse 2; D-95666; "
11.84981,50.89979,"D32 IDS Bad Klosterlausnitz 0432 - Shell Tankstelle; D-07639; "
9.24424,52.23361,"D36 IDS Rehren 0436 - Altes Feld; D-31749; "
8.6908,50.29809,"D38 IDS Rosbach 0438 - Gewerbegebiet; D-61191; "
8.56716,49.32233,"D39 IDS Hockenheim 0439 - Autobahntankstelle BAT Hockenheim West A 6; D-68766; "
8.24901,50.29812,"D41 IDS Bad Camberg 0441 - Otto-Hahn-Strasse 3; D-65520; "
8.79232,47.76097,"D44 IDS Singen 0444 - Tank In; D- 78247; "
10.16924,52.10997,"D47 IDS Grasdorf 0447 - IDS Grasdorf; D-31188; "
9.42867,48.64564,"D48 IDS KirchheimTeck 0448 - Lise-Meitner-Str. 32; D-73230; "
8.15996,50.76176,"D50 IDS Haiger 0450 - Kalteiche 3; D-35708; "
8.54801,49.14902,"D52 IDS Karlsdorf 0452 - Im Ochsenstall 13; D-76689; "
6.73932,51.44143,"D53 IDS Duisburg 0453 - Am Blumenkampshof 2; D-47059; "
9.30799,49.14465,"D54 IDS Weinsberg 0454 - Am Autobahnkreuz 6; D-74248; "
10.089411,53.505169,"D55 IDS Hamburg 0455 - Amandus-Stubbe-Strasse 6; D-22213; "
8.89226,49.2422,"D56 IDS Sinsheim 2 0456 - Avia; D-74889; "
11.579,52.0618,"D57 IDS Osterweddingen 0457 - Greenline GmbH; 39171; "
12.20317,50.50479,"D58 IDS Plauen 0458 - Zur Sternquell 8; 08505; "
9.57065,50.83372,"D93 IDS Kirchheim 0493 - Q1 Tankstelle; D-36275; "
-1.39593,53.71032,"GB6 IDS Castleford 0284 - Exelby Services; WF10 5QH; "
-1.3498,53.18868,"GB7 IDS Chesterfield 1224 - Junction 29 Truckstop Ltd; S42 5SA; "
1.2,51.1811,"GB11 IDS Dover 0216 - Husk UK Limited; CT15 7JW; "
0.90362,51.12132,"GB16 IDS Ashford Truckstop 0288 - Ashford Truckstop Services; TN24 0LH; "
-2.70366,53.30937,"GB17 IDS Runcorn 0228 - County Oil Group Limited; WA7 3EL; "
-2.10962,51.51331,"GB25 IDS Chippenham 0240 - Chippenham Truckstop; SN15 5LH; "
0.26974,51.47202,"GB26 IDS West Thurrock 0270 - Team Flitwick Limited; RM20 3EE; "
-3.39876,51.52861,"GB30 IDS Llantrisant 0249 - Silvey Truckstop; CF9 9EW; "
0.73392,52.25497,"GB42 IDS Bury St. Edmunds 1216 - Bryan J Nunn Haulage Ltd; IP32 7HT; "
-0.42283,51.8229,"GB63 IDS Flamstead 1202 - Watling Street Filling Station; AL3 8HA; "
-2.07145,52.65497,"GB67 IDS Wolverhampton 1226 - M6 Diesel Limited; WV10 7LZ; "
-2.58903,54.44325,"GB72 IDS Tebay 1234 - M6 Diesel Services; CA10 3SS; "
-2.87495,54.85695,"GB83 IDS Carlisle - Golden Fleece 1276; Golden Fleece M6 Junction 42; Carleton; CA4 0AN ; "
-1.174,54.5826,"GB103 IDS Middlesbrough 1273 - Woolston Haulage; TS6 6TX; "
-0.24608,52.37229,"GB113 IDS Alconbury T/S 1266 - Nightowl; PE28 4DJ; "
-2.99928,51.1027,"GB115 IDS Bridgwater  1271 - Silvey Oils; TA64BJ; "
-0.60567,52.80321,"GB116 IDS Colsterworth 1270 - A1 Truckstop; NG33 5JJ; "
-1.08807,50.81384,"GB117 IDS Portsmouth 1272 - Portsmouth Truckstop; PO61UJ; "
1.32464,51.95205,"GB118 IDS Felixstowe 2 1275 - Haven Filling Station; IP11 3SE; "
-1.31926,54.41643,"GB121 IDS Northallerton South 1277 - Ingleby Arncliffe; DL6 3LG; "
-1.32042,54.40949,"GB122 IDS Northallerton North 1278 - Ingleby Arncliffe; DL6 3JT; "
18.597965,47.501431,"HU1 IDS Bicske 4421 - Steiner Autohof; HU-2061; "
17.2563,47.8508,"HU2 IDS Mosonmagyaróvár  4422 - OIL! Truck Mosonmagyaróvár; HU-9200; "
16.8255,46.4556,"HU3 IDS Becsehely  4423 - AGIP; 8866; "
-6.40159,54.01208,"IRL1 IDS Dundalk North 1306 - Ballymac Service Station; "
-6.3484,53.32468,"IRL2 IDS Dublin South 1305 - Tougher Oil; "
-6.7303,53.2081,"IRL5 IDS Naas 1300 - Tougher Oil; "
-6.96763,54.36955,"IRL11 IDS Emyvale North 1310 - Dunmoran Service Station; "
-7.37599,55.03699,"IRL22 IDS Bridgend Central 1321 - Rafferty\'s Service Station; "
-6.34497,52.24697,"IRL42 IDS Rosslare 1341 - Morgan Fuels Ltd; "
-6.34646,54.07738,"IRL43 IDS Carrickcarnon 1342 - Morgan Fuels Ltd; "
-6.24068,53.42719,"IRL44 IDS Collinstown 1344 - Collinstown Business Park; "
-6.2438225,53.3507747,"IRL46 IDS Dublin Port 1355 - Dublin Port S/S; Dublin 3; "
-6.206908,53.533911,"IRL47 IDS Lusk East 1353 - Top Oil; "
-6.206908,53.533911,"IRL48 IDS Lusk West 1354 - Top Oil; "
-6.4037354,53.9999772,"IRL49 IDS Dundalk East 1349 - Top Oil; "
-6.4037354,53.9999772,"IRL50 IDS Dundalk West 1350 - Top Oil; "
-6.8309956,53.4155241,"IRL51 IDS Enfield North 1351 - Top Oil; "
-6.8309956,53.4155241,"IRL52 IDS Enfield South 1352 - Top Oil; "
7.55207,45.03974,"I1 IDS Torino Sito 0759 - Interporto S.t.o.; I-10040; "
9.63354,45.66504,"I4 IDS Lallio 0748 - Via Provinciale 4 Distr.Q8; I-24040; "
9.08524,45.5147,"I5 IDS Pero Nord 0750 - A.D.S. Q8 Pero Nord Aut. To/Mi; I-20016; "
8.58657,44.92511,"I10 IDS Alessandria 0755 - SS31 km 52; 300/Reg S Michele; I-15100; "
13.21895,46.01587,"I11 IDS Zugliano Est 0730 - AUTOSTRADA VE-TS/LOC.TERENZANO; I-33050; "
11.31011,42.41657,"I16 IDS Capalbio 0774 - S.S. 1 AURELIA KM. 133; I-58100; "
11.96259,42.02986,"I17 IDS Tirreno Ovest 0770 - A12 KM 39.00 ADS TIRRENO OVEST; I-00050; "
12.95382,41.42719,"I20 IDS Latina Via Pontina 0775 - S.S.Pontina km 78+265; I-04100; "
14.56131,42.20032,"I21 IDS Sangro Ovest 0760 - ADS Sangro Ovest Aut-Bo/Canosa; I-66020; "
15.2442,37.82365,"I28 IDS Calatabiano  Nord 0780 - Aut.Me/Ct-ADS Calatabiano Ovest; I-95011; "
9.33562,45.54868,"I30 IDS Rodano 0757 - S.P.N 14 km 6+635; I-20090; "
9.28941,45.35049,"I31 IDS Carpiano 0758 - S.P. 40 Binasco-Melegnano; I-20080; "
15.00425,41.98627,"I32 IDS Termoli 0787 - SS. 16 KM. 548 IMP.CARB. Q8; I-86039; "
15.01289,41.06051,"I33 IDS Mirabella Sud 0796 - Area Servizio A/16; I-83036; "
17.08674,40.59616,"I34 IDS Massafra 0776 - S.S. 7 km 632+176; I-74016; "
12.72166,42.95511,"I37 IDS Foligno 0784 - S.S. 3 km.149+75 loc.S.Eraclio; I-06030; "
8.93677,44.43692,"I38 IDS S. Ilario Sud 0704 - Area Serv. autostr. Ge/Li; I-16167; "
10.8539,45.4099,"I39 IDS Sommacampagna 0713 - Nuova Strada Provinciale; I-37066; "
10.85397,44.77553,"I40 IDS Carpi 0703 - Via dell\'Industria 8; I-41012; "
12.4157,43.066,"I43 IDS Perugia 0799 - S.S. 3 Bis Km 66+830; I-06100; "
12.23032,42.62448,"I44 IDS Tevere Ovest 0797 - ADS TEVERE OVEST AUT. DEL SOLE; I-01020; "
12.38573,41.95823,"I46 IDS Roma GRA Selva Candida 0732 - GRA LOC.SELVA CANDIDA KM.8+375; I-00166; "
15.87814,41.32854,"I49 IDS Le Saline Ovest 0793 - Autostrada A14 Bologna/Taranto; I-71042; "
15.25081,38.18105,"I51 IDS Olivarella Sud 0790 - Autostrada A20 Messina/Palermo; I-98051; "
11.735,44.3745,"I52 IDS Imola 0714 - S.S. 610 km 0+800; I-40026; "
11.1059,43.7356,"I54 IDS Lastra A Signa 0743 - S.G.C. FI/PI/LI; I-50055; "
14.08596,42.32582,"I58 IDS Brecciarola Nord 0718 - ADS PE/POPOLI BRECCIAROLA NORD; I-66010; "
11.83992,45.37751,"I60 IDS Padova Corso Boston 0722 - Corso Boston Tangenziale; I-35100; "
12.81933,45.80501,"I61 IDS Gruaro Est 0720 - Autostrada A28 Portogruaro/Pordenone; I-30020; "
7.78459,44.54889,"I62 IDS Rio Ghidone Ovest 0712 - Autostrada A6 Torino/Savona; I-12045; "
13.14296,43.49469,"I65 IDS Monteroberto 0734 - Variante S.S.76 km 51+500; I-60030; "
13.68021,43.39739,"I66 IDS Potenza Picena 0717 - S.S. 16 Adriatica; I-62208; "
12.1745,44.4086,"I72 IDS Ravenna Nord 0723 - S.S.16 Adriatica; I-48100; "
9.041,45.49,"I74 IDS Settimo Milanese 0731 - S.S. 11 KM 130+776-DISTR. \'Q8\'; I-20019; "
13.5108,43.561,"I75 IDS Baraccola 0736 - SS.16 KM 305 LOC.BARACCOLA; I- 60100; "
9.65961,45.17772,"I82 IDS Casalpusterlengo 0768 - S.S. 234; I-20071; "
8.89799,44.40711,"I83 IDS Genova 0705 - Lungomare Canepa; I-16149; "
11.84553,45.44926,"I84 IDS Limenella Nord 1700 - Autostrada A4 Torino/Trieste; I-35010; "
11.224604,44.032835,"I86 IDS Aglio Ovest 1702 - S.SERV.AUTOSOLE AGLIO OVEST-Q8; I-50031; "
16.2469,39.84187,"I88 IDS Frascineto Est 1704 - Autostrada A3 Salerno/Reggio Calabria; I-87012; "
15.05365,38.12632,"I89 IDS Tindari Nord 1705 - AAUTOSTRADA ME/PA TINDARI NORD; I-98060; "
15.18272,40.62345,"I91 IDS Campagna Ovest 1707 - Autostrada A3 Salerno/Reggio Calabria; I-84022; "
10.36,43.66874,"I92 IDS Castagnolo Est 1708 - AUT.LI/GE CASTAGNOLO EST; I-56010; "
9.93948,44.48689,"I93 IDS Tugo Ovest 1709 - PR/SP TUGO OVEST; I-43042; "
8.36409,44.90496,"I95 IDS Crocetta Nord 1711 - Autostrada A21 Torino/Piacenza; I-14034; "
11.71967,45.0566,"I96 IDS Adige Ovest 1712 - AUTOSTRADA PD/BO ADIGE OVEST; I-45023; "
15.35607,37.93761,"I100 IDS Baracca Est 0772 - AUTOSTRADA ME/CT S.TERESA RIVA EST; I-98028; "
8.79442,39.62588,"I101 IDS Sardara Est 0781 - S.S. 131 KM 56; 148 LATO EST; I-09030; "
13.37197,38.08939,"I109 IDS Palermo 2 1718 - Viale Regione Siciliana; I-90124; "
11.10579,46.0871,"I110 IDS Campotrentino Ovest 1720 - TANG.SS12 LOC CAMPOTRENTINO OV; I-38100; "
11.35887,44.56444,"I111 IDS Castelmaggiore 1725 - Via Galliera; I-40013; "
9.732,45.0252,"I124 IDS Piacenza 3 1733 - Tang SUD dir. Parma; I-29100; "
16.76718,41.08921,"I125 IDS Modugno 1734 - SS.98 KM.80+868; I-70026; "
9.21299,45.68401,"I127 IDS Carate Brianza Ovest 1737 - S.S 36 SPLUGA KM 23+470; I-20048; "
11.9695,45.3825,"I129 IDS Saonara 1739 - Via dei Vivai 25; I-41100; "
16.63188,40.13841,"I130 IDS Novasiri 1741 - S S 106 Jonica; I-75020; "
10.595,43.6325,"I131 IDS Pontedera 1740 - S.G.C Firenze/Pisa/Livorno; I-56025; "
10.6115,44.7114,"I132 IDS Reggio Emilia 1743 - Via Martiri di TienAnMen 6; I-42100; "
12.089779,44.245171,"I134 IDS Forlì 1742 - A. GORDINI 1H IMP. Q8; I-47100; "
17.56145,40.79191,"I137 IDS Ostuni 1746 - S.S.379 KM 29+740; I-72015; "
10.9039,45.4104,"I150 IDS Sommacampagna 2 1761 - Via Aeroporto; I-37060; "
9.072,45.4568,"I156 IDS Milano Tang OVEST 1766 - Via Parri 33; I-20152; "
8.60986,45.4642,"I164 IDS Novara 2 1772 - Viale Europa; I-28100; "
9.6,45.6315,"I172 IDS Brembo Sud 1780 - AUTOSTR. MI/BS -ADS BREMBO SUD; I-24040; "
12.2805,45.7505,"I173 IDS Piave Est 1781 - Autostrada A27 Mestre; Belluno; I-31020; "
12.149,45.4426,"I174 IDS Malcontenta 2 1782 - S.S. 11 km 413+584; I-30100; "
12.2765,45.1762,"I179 IDS S. Anna di Chioggia 1788 - S.S.309; Strada Romea; I-30010; "
12.81773,45.80384,"I185 IDS Gruaro Ovest 0721 - Autostrada A28 Portogruaro/Pordenone; I-30020; "
14.08665,42.32514,"I186 IDS Brecciarola Sud 0719 - ADS PESCARA POPOLI (SUD); I-66010; "
15.711,41.064,"I188 IDS Melfi 2720 - S.S. 655 km 51 Loc. S. Nicola; I-85025; "
10.0511,44.03234,"I189 IDS Marina di Carrara 2703 - Viale G. da Verrazzano; 13; I-54033; "
16.1504,38.69974,"I190 IDS S. Onofrio 2713 - Via Salvatore Allende; I-89943; "
10.66677,44.77045,"I196 IDS Bagnolo in Piano 2708 - V.LE EUROPA; 4; I-42011; "
18.203,40.3444,"I198 IDS Lecce 2 2711 - Via Vernole KM. 1+500; I73100; "
10.34,44.7754,"I200 IDS Parma Tangenziale Sud 2723 - Via Saint Mary; Tangenziale Sud; I; 43100 ; "
10.2268,44.7536,"I204 IDS Collecchio 2724 - STRADA NAZIONALE EST 16; I; 43044; "
8.84941,45.63733,"I205 IDS Busto Arsizio 2727 - Viale Malpensa 19; 21052; "
12.6446,43.993,"I208 IDS Riccione 2731 - Via Berlinguer 53; 47838; "
8.826,44.868,"I216 IDS Tortona 2737 - S.S. 211 KM 10+166; 15050; "
8.133,45.55441,"I219 IDS Valdengo 2743 - SS 142 KM 8+225; 13855; "
10.33087,43.5205,"I221 IDS Livorno (mare) 0762 - S.S. 1 Variante Aurelia; I-57100; "
12.16649,44.4148,"I222 IDS Ravenna Sud 0724 - S.S. 16 Adriatica; I-48100; "
11.11195,46.09908,"I223 IDS Campotrentino Est 1748 - TANG.SS12 LOC CAMPOTRENTINO ES; I-38100; "
15.0366,37.461,"I226 IDS Catania 2749 - S.P. 55 C.DA BICOCCA ASSE SERVIZI; 95100 CT; "
12.6116,45.7012,"I237 IDS Cessalto 2757 - VIA DANTE SP 54; 31040; "
9.0025,40.5873,"I238 IDS Ozieri 2758 - SS 597 KM 30+067; 01014; "
11.38073,45.45238,"I239 IDS Montebello Vicentino 2759 - Via Signolo 2; 36054; "
8.617,44.37182,"I241 IDS Piani di Invrea 2761 - ADS Piani di Invrea Nord A10; 17019; "
9.0288,45.72929,"I242 IDS Lario Est 2762 - ADS Lario Est A9 km 27+600; 22071; "
12.61894,43.99519,"I243 IDS Montefeltro EST 2763 - ADS Montefeltro Est A14 Adriatica; 47838; "
12.60338,42.13515,"I246 IDS Feronia Est 2766 - ADS Feronia Est; A1 Roma/Milano; 00065; "
10.31951,45.4608,"I248 IDS Castenedolo 2768 - Bretella SS 236 SS 11 Variante; 25014; "
11.0452,43.883,"I251 IDS Prato 2770 - Via Leonardo da Vinci; 7260; 59012; "
15.82506,38.29037,"I252 IDS Bagnara Calabra 2771 - EX S.S. 112 S.P. KM 3+358; 98010; "
16.5918,40.67783,"I254 IDS Matera 2773 - Via Nazionale; 75100; "
15.01398,41.06063,"I256 IDS Mirabella Nord 2778 - Autostrada A16 Canosa/Napoli; 83036; "
12.01872,42.87596,"I257 IDS Fabro Est 2779 - AdS Fabro Est; 05051; "
11.16,43.83267,"I259 IDS Firenze Nord 2781 - AdS Firenze Nord; 50013; "
13.72312,43.28538,"I260 IDS Chienti Ovest 2782 - ADS Chienti Ovest; 63019; "
10.46749,45.40691,"I261 IDS Castiglione delle Stiviere 2 2783 - S:S. 567 Variante km 3+300; 46043; "
13.7046,37.9819,"I264 IDS Termini Imerese 2784 - Via Asi Loc.ta\' Barratina; 90018; "
10.3432,43.5508,"I268 IDS Livorno 4 2788 - SS1 VARIANTE AURELIA KM 317+47; 57100; "
11.64219,46.72926,"I275 IDS Plose Ovest 3700 - AdS Plose Ovest A22 Km42; 43042; "
10.91627,45.69469,"I276 IDS Adige Est 2799 - AdS Adige Est A22 Km. 187; 37020; "
8.282,44.3886,"I279 IDS Cairo Montenotte 2796 - Via Brigate Partigiane 29; 17014; "
14.318197,40.891861,"I282 IDS Masseria Est ADS  3704 - Autostrada A1 Milano-Napoli dir. nord; 80026; "
16.9409,40.86,"I283 IDS Gioia del Colle 3703 - S.S. 100; 70023; "
15.500154,41.591105,"I284 IDS Gargano Ovest 3706 - Ads Gargano Ovest; 71100; "
8.509266,45.074386,"I285 IDS Monferrato Ovest 3707 - Aut. A26 Km 83; 15040; "
16.219368,41.251699,"I290 IDS Canne della Battaglia 3725 - ADS A14 BO/BA; 70051; "
12.579278,41.705637,"I291 IDS Santa Palomba 3715 - S.P. ARDEATINA KM 22+400; 00040; "
14.567163,40.827436,"I292 IDS Angioina Ovest 3716 - OVEST A30 CE-SA KM33+576; 80040; "
8.145065,45.367597,"I294 IDS Cavour Est 3721 - CAVOUR EST A26 TRAFORI KM 29+275; 13048; "
11.789009,42.129487,"I296 IDS Civitavecchia 3724 - FABIO SACCHETTI 2; 00053; "
12.2214432,44.2267402,"I299 IDS Ravenna Loc. Mensa 3727 - S.S. E-45 KM 233+538 LOC.MENSA; 48100; "
9.6544636,45.0607149,"I300 IDS Trebbia Sud 3728 - Autostrada TO-PC KM 157+000; I-29100; "
13.2193483,46.1169795,"I301 IDS Tavagnacco 3705 - V.VENEZIA-SS 13 PONTEBBANA KM 132+5; I-33010; "
11.8058981,43.4519738,"I302 IDS Arezzo 3729 - SS 679 KM 4+830 LOC. S.GIULIANO; I-52100; "
23.8535,54.8094,"LT2 IDS Kaunas 7062 - Mastaièiu km.; LT-4324; "
5.74664,49.82593,"L1 IDS Martelange  0501 - Q8 Service Station; L-8832; "
5.81907,49.54353,"L3 IDS Rodange 0503 - Q8 Service Station; L-4832; "
6.1335,49.854,"L5 IDS Ingeldorf 0504 - Q8 Service Station; L-9160; "
5.9146,50.05272,"L8 IDS Wincrange 0508 - Q8 Service Station; L-9780; "
6.06052,50.05223,"L9 IDS Marnach 0509 - Truck Center Marnach; L-9764; "
6.0,49.513,"L10 IDS Schifflange 0507 - Z.I. Um Monkeler; L-4122; "
5.9746,49.6356,"L11 IDS Capellen 0511 - Aire Capellen Nord; L-8309; "
6.400266,49.677904,"L12 IDS Potaschberg 0513 - Esso Service Station; L-6776; "
6.98448,52.73281,"NL2 IDS Klazinaveen 0303 - Rigel 30; NL-7891 VJ; "
6.17717,52.55805,"NL3 IDS Nieuwleusen 0305 - Hermelenweg 190; NL-8028 PL; "
6.9275,52.28545,"NL4 IDS Oldenzaal 0320 - Truckcentre Hanzepoort; NL-7575 DB; "
5.9454,51.6694,"NL7 IDS Boxmeer 0312 - Transportcentrum 1; Dijkstraat 4; NL-5835 EA; "
4.744,51.4897,"NL9 IDS Hazeldonk 0313 - Hazeldonk 6003; NL-4836 LA; "
4.1835,51.9167,"NL10 IDS Rotterdam/Europoort 0317 - Q8 Service Station; NL-3181 LP; "
6.1901,51.38048,"NL12 IDS Venlo manned 0310 - Q8 Service Station; NL-5916 RD; "
5.78562,50.95475,"NL13 IDS Elsloo 0304 - Mauritsweg 5; NL-6181 AA; "
4.26364,51.87282,"NL19 IDS Rotterdam / Botlek 0370 - Tweedweg 10; NL-3197 LM; "
4.64,52.4763,"NL20 IDS Velsen Noord 0322 - Q8 Service Station; NL-1951 JW; "
5.24841,51.8297,"NL21 IDS Waardenburg 0381 - Industrieterrein Slimwei; NL-4181 CA; "
6.0945,52.2093,"NL23 IDS Wilp 0324 - Q8 Service Station; NL-7437 PV; "
5.2545,52.26428,"NL26 IDS Eemnes 0325 - Q8 Service Station \'t Veentje; NL-3755 MV; "
5.94063,52.97569,"NL36 IDS Heerenveen 0326 - Saturnus 2; NL-8448 CC; "
6.869,53.1666,"NL38 IDS Zuidbroek 0331 - Europaweg 18; NL-9636 HT; "
6.135,53.09621,"NL39 IDS Drachten 0327 - Curielaan 1; NL-9207 HB; "
7.0395,52.9225,"NL43 IDS Ter Apelkanaal 0329 - Ambachtsweg 2; NL-9563 TV; "
5.1918,51.849,"NL45 IDS Geldermalsen 0335 - Q8 Service Station; NL-4156 JZ; "
6.2836,51.94609,"NL46 IDS Doetinchem 0337 - Braamtseweg 12; NL-7007 CC; "
6.19,51.381,"NL49 IDS Venlo unmanned 0311 - Q8 Service Station; NL-5916 RD; "
4.837,52.30529,"NL57 IDS Amstelveen 0352 - Q8 Service Station; NL-1182 AW; "
6.0354,51.9535,"NL60 IDS Q8 Duiven 0355 - Q8 Service Station; NL-6921 RV; "
4.67924,51.66275,"NL62 IDS Moerdijk / A16 0354 - Q8 Service Station; NL-4765 BK; "
6.1498,51.9087,"NL65 IDS Babberich 0309 - Transito 11; NL-6909 DA; "
4.1921,51.4225,"NL67 IDS Rilland 0308 - Bedrijvencentrum \'De Poort\'; NL-4411 PA; "
4.225,51.9556,"NL68 IDS Maasdijk 0336 - Honderdland 101; NL-2676 LT; "
4.5616,51.855,"NL69 IDS Barendrecht 0375 - Tuindersweg 34; 2991 LR; "
5.1095,52.051,"NL70 IDS Utrecht 0376 - Ind. Zone De Liesbosch; 3439 LD; "
5.98155,51.546,"NL71 IDS Venray 0378 - Vennootstraat 3; 5804 CN; "
5.4856,51.503,"NL72 IDS Son 0382 - Vollenhoven; 5692 CD; "
5.0421,51.5373,"NL73 IDS Tilburg 0379 - Vollenhoven; 5032 MN; "
4.4963,51.5385,"NL74 IDS Roosendaal 0383 - Vollenhoven; 4706 PL; "
5.5087,51.6269,"NL75 IDS Veghel 0380 - Vollenhoven; 5462 GH; "
5.49806,52.35268,"NL76 IDS Zeewolde 0384 - Supertank; 3899 BE; "
6.0268,51.9635,"NL77 IDS Duiven 0386 - Marketing 8; 9621 RE; "
14.7355,53.363,"PL16 IDS Szczecin Bobryk 5099 - ul. Balinskiego 20; 70-893; "
14.615,52.33361,"PL17 IDS Slubice 5098 - Przemyslowa 4; 69-100; "
16.70012,50.47272,"PL18 IDS Boguszyn  5094 - PKN Orlen; 57-300; "
20.46349,51.92705,"PL19 IDS Zawady 5089 - PKN Orlen; 96-111; "
19.701855,51.956551,"PL20 IDS Glowno 5090 - PKN Orlen; 95-015; "
19.04726,50.25417,"PL21 IDS Katowice 5091 - PKN Orlen; 40-265; "
18.68576,54.17877,"PL23 IDS Pszczolki 5093 - PKN Orlen; 83-032; "
15.7885,51.2618,"PL25 IDS Okmiany 5096 - Okmiany 1E; 59-225; "
-8.62807,39.93834,"PT1 IDS POMBAL NORTH 7082 - E.S. OURO NEGRO; 3100; "
-8.62868,39.93829,"PT2 IDS POMBAL SOUTH 7081 - E.S. OURO NEGRO; 3100; "
-8.4554278,41.5059218,"PT3 IDS BRAGA PETROIBERICA 7083 - Mercado Abastecedor Região do Noroeste; Celeiros; 4709-001; "
-8.632859,39.915999,"PT4 IDS POMBAL PETROIBERICA 7084 - Av. Arquitecto Rosado Correia; 3100-532; "
-8.9534926,39.6971822,"PT5 IDS MOITA PETROIBERICA 7085 - Estrada Nacional Nº 242; 2445-630; "
-8.61096382,39.4817606,"PT6 IDS ZIBREIRA PETROIBERICA 7086 - Rua do Conselheiro Real Nº19-A; 2350-846; "
-8.50431919,39.43012721,"PT7 IDS RIACHOS PETROIBERICA 7087 - Zona Industrial dos Riachos; 2350-321; "
-8.8521265,38.9197534,"PT8 IDS MURTEIRA PETROIBERICA 7088 - Estrada da Murteira; 2135; "
21.042,46.1723,"RO1 IDS Pecica 4240 - Diesel One; 317235; "
22.9242,45.86392,"RO2 IDS Deva 4241 - Diesel One; 330182; "
22.92905,47.81609,"RO3 IDS Botiz 4242 - Diesel One; 447065; "
21.96475,47.02778,"RO4 IDS Oradea 4243 - Diesel One; 410554; "
21.307,45.7767,"RO5 IDS Timisoara 4244 - Diesel One; 300135; "
25.97513,44.43208,"RO6 IDS Bucuresti 4245 - Diesel One; 062204; "
26.9013602,46.5577648,"RO7 IDS Bacau 4246 - Diesel One; 600108; "
26.04392,44.8856,"RO8 IDS Barcanesti 4247 - Diesel One; 107055; "
25.63945,45.6698,"RO9 IDS Brasov 4248 - Diesel One; 500240; "
24.21,45.735,"RO11 IDS Selimber 4250 - Diesel One; 557260; "
25.97567,43.92872,"RO12 IDS Giurgiu 4251 - Diesel One; 80305; "
21.528,46.535,"RO13 IDS Chisineu Cris 4252 - Diesel One; 315100; "
24.518,46.514,"RO14 IDS Vidrasau 4253 - Diesel One; 547612; "
23.588,45.945,"RO15 IDS Sebes 4254 - Diesel One; 515800; "
23.79658,44.28133,"RO16 IDS Craiova 4255 - Diesel One; 207467; "
23.47971,46.7438516,"RO17 IDS Floresti 4256 - Avram Iancu street; no. 2A; 407280; "
25.9853,44.0868,"RO18 IDS Calugareni 4257 - Daia Village; 087040; "
37.0115,55.6038,"RUS2 IDS Moscow Vik 7002 - E30 (M1) Minsk; Moskva; "
28.21,56.355,"RUS3 IDS Sebezh 7003 - M9 Riga; Moskva near Sebezh; "
35.45656,56.04039,"RUS4 IDS Shahovskaya 7004 - M9 Riga; Moskva Shahovskaya; "
28.666,60.74525,"RUS5 IDS Vyborg 7005 - E18 (M10) St. Petersburg; Vyborg; "
33.24,57.961,"RUS6 IDS Valdai 7006 - E95 (M10) St. Petersburg; Moskva Valdai; "
33.07,68.88,"RUS7 IDS Murmansk 7007 - v. Kola Kildinskoje Road; "
31.5945,54.796,"RUS8 IDS Smolensk North 7008 - E30 (M1) Moskva; Minsk; "
31.005,54.6892,"RUS9 IDS Archipovka 7009 - Station No. 691; "
33.26891,57.3758,"RUS10 IDS Ivangorod 7010 - Station No. 322; "
27.841,56.88,"RUS11 IDS Ubylinka 7011 - Station No. 527; "
27.396,57.645,"RUS12 IDS Pskov 7012 - Station No. 679; "
15.5763,46.3848,"SLO1 IDS Maribor/Slovenska Bistrica 4325 - Zolgarjeva ulica 25; 2310; "
13.76225,45.55286,"SLO2 IDS Koper 4326 - Benzinski Servis U.N.E.S. Sermin; 6000; "
16.207,46.633,"SLO3 IDS Beltinci 4327 - Road nr.3 Lipovci; 9231; "
13.627639,45.921259,"SLO4 IDS Vrtojba 4340 - MMP Vrtojba; 5290; "
15.668521,46.525579,"SLO5 IDS Maribor 4324 - Perhavceva 15; 2000; "
2.97362,42.26809,"E2 IDS Figueras 0909 - E.S. Petrem Trucks AP 7 salida 4; E-17600; "
-2.618,42.877,"E8 IDS Vitoria 0912 - E.S. Vitoria; E-01070; "
-6.0525,40.8504,"E11 IDS Salamanca I 0916 - E.S. Q8 Aldehuela; E-37460; "
-1.6669,41.32617,"E19 IDS Calatayud 0928 - E.S. Valdeherrera; E-50300; "
-8.63165,42.06972,"E22 IDS Tuy 0931 - E.S. Sertuy; E-36720; "
0.906023,41.6451,"E24 IDS Lérida/Lleida 0934 - E.S. IDS Lleida; E-25245; "
-6.98939,38.89884,"E28 IDS Badajoz 0938 - E.S. IDS Badajoz; E-06006; "
-3.294,40.5303,"E29 IDS Guadalajara 0939 - E.S. IDS Meco; E-28880; "
-3.629,38.228,"E30 IDS Carboneros 0940 - E.S. Q8 Carboneros; E-23211; "
-3.594,41.0965,"E31 IDS Madrid Norte 0941 - E.S. Q8 Horcajo; E-28755; "
-6.03531,37.42268,"E32 IDS Sevilla Norte 0943 - E.S. María Auxiliadora; E-41907; "
-6.8249505,37.3162629,"E39 IDS San Juan del Puerto 0947 - E.S IDS San Juan del Puerto; E-21610; "
1.6833,41.3325,"E40 IDS Vilafranca 0942 - E.S. Q8 Olerdola; E-08734; "
-2.926,39.961,"E41 IDS Tarancón 0951 - E.S. Autovía III; E-16400; "
-7.14862,37.28866,"E43 IDS Cartaya 0972 - E.S. Q8 Cartaya; E-21450; "
-5.4409,36.13459,"E55 IDS Puerto de Algeciras 0962 - E.S BP; E-11207; "
-5.57322,42.5823,"E56 IDS MercaLeón 0961 - E.S IDS Mercaleón; E-24192; "
-5.82039,43.41877,"E57 IDS MercAsturias 0963 - E.S Q8 Mercasturias; E-33192; "
-4.5005,41.9391,"E58 IDS Palencia 0964 - A-67; Exit 1; E-34190; "
-3.64908,40.10483,"E59 IDS Seseña 0966 - E.S IDS Seseña; E-45223; "
-5.730373,43.323152,"E60 IDS Langreo 0967 - E.S IDS Langreo; E-33909; "
-3.6894,37.2291,"E61 IDS Granada II 0968 - E.S IDS Atarfe; E-18230; "
-1.8168,43.3337,"E62 IDS Irún 0969 - E.S. IDS Irún; E-20300; "
-2.1833,42.915,"E63 IDS Alsasua 0980 - E.S. IDS Alsasua; E-31800; "
-1.634978,42.73384,"E64 IDS Pamplona II 0981 - E.S IDS Beriáin; E-31191; "
-3.7197,38.141,"E66 IDS Guarromán 0983 - E.S IDS Guarromán; E-23210; "
-0.8544,41.7215,"E67 IDS Zaragoza 0984 - E.S IDS Zaragoza; E-50820; "
-0.11675,39.89924,"E68 IDS Castellón 0965 - E.S Q8 Elihotel; E-12539; "
-0.51925,39.1623,"E70 IDS Massalavés 0985 - E.S Ribercost; E-46292; "
-3.787,43.3965,"E72 IDS Heras 1907 - E.S. Heras; E-39792; "
-1.2196,38.0877,"E76 IDS Murcia 0988 - E.S. IDS Molina de Segura; E-30500; "
-0.547846,39.47536,"E79 IDS Ribaroja de Turia 0991 - E.S. IDS Disfrimur; E-46190; "
-4.97017,37.60288,"E83 IDS Ecija 0995 - E.S. GC Carburantes S.L.; E-41400; "
-1.24902427,37.9524548,"E87 IDS Sangonera La Seca 0987 - A7; Salida 647; E-30835; "
-1.7011,38.5446,"E89 IDS Hellin 0977 - Vial D\'; P.I. SAN RAFAEL; E-02400; "
-0.855345,38.17005,"E92 IDS San Isidro 1950 - E. S. SAN ISIDRO; E-03349; "
-5.58424,42.52505,"E93 IDS Onzonilla 1951 - E.S. Paso Honroso; E-24231; "
-4.05125,40.22392,"E94 IDS Casarrubios del Monte 1952 - E.S. Q8 Casarrubios del Monte; E-45950; "
-7.716221,42.078412,"E95 IDS Xinzo de Limia 1953 - E.S. Antela; E-32630; "
-4.07502,40.65149,"E96 IDS Guadarrama 1954 - Guadarrama Camiones; S.L.; E-28440; "
-5.66443,42.00536,"E97 IDS Benavente II 1956 - IDS Benavente II; E-49600; "
-2.7024,42.89552,"E98 IDS Foronda 1955 - E.S. Foronda; E-01070; "
-3.20708,39.08735,"E99 IDS Manzanares 1957 - E.S. Virtudes; E-13200; "
-2.9618762,42.6863919,"E100 IDS Miranda de Ebro 1958 - Area de servicio del Ebro; E-09200; "
-6.360965,38.560146,"E101 IDS Villafranca de los Barros 1966 - C/ Albañiles; E-06220; "
13.009,55.622,"S1 IDS Malmö 0889 - CMP Malmö; 201 25; "
12.818,55.94,"S2 IDS Glumslöv 0804 - OKQ8 AB; 261 63; "
12.772,56.02,"S3 IDS Helsingborg 0865 - Volvo; 250 15; "
14.21,56.028,"S4 IDS Kristianstad 0830 - Volvo; 291 50; "
13.817,56.163,"S5 IDS Hässleholm 0873 - Transportledet Sverige AB; 281 02; "
12.9365,56.3885,"S7 IDS Hallandsåsen 0809 - OKQ8; 269 96; "
12.899,56.655,"S9 IDS Halmstad 0838 - OKQ8; 302 06; "
12.3518,57.063,"S10 IDS Himle 0818 - OKQ8; 430 10; "
14.097,57.348,"S11 IDS Klevshult 0807 - OKQ8; 568 92; "
14.771,56.886,"S12 IDS Växjö 0817 - Volvo; 350 43; "
16.321,56.6825,"S14 IDS Kalmar 0832 - OKQ8; 392 39; "
16.447,57.25,"S15 IDS Oskarshamn 0888 - EB Logistik AB; 572 26; "
11.993517,57.747278,"S16 IDS Hisings Backa 0826 - OKQ8; 422 46; "
13.661,57.78,"S17 IDS Strängsered 0857 - OKQ8; 523 91; "
12.133,58.145,"S19 IDS Lilla Edet 0801 - OKQ8; 463 30; "
12.815,58.0505,"S20 IDS Vårgårda 0816 - OKQ8; 447 91; "
11.63,58.488,"S22 IDS Håbygård 0803 - OKQ8; 455 91; "
12.35856,58.55893,"S23 IDS Brålanda 0827 - OKQ8; 460 65; "
13.857455,58.692435,"S24 IDS Mariestad 0813 - OKQ8; 542 92; "
16.454592,58.333859,"S25 IDS Ringarum 0837 - OKQ8; 610 41; "
16.224691,59.001279,"S26 IDS Katrineholm 0835 - Volvo; 641 49; "
16.470182,59.387516,"S28 IDS Eskilstuna 0841 - Volvo; 633 46; "
17.82719,59.21515,"S29 IDS Tumba 0855 - LKS Konsult KB; 147 43; "
18.116672,59.147386,"S31 IDS Haninge 0882 - Haninge Åkeri AB; 136 50; "
16.567941,59.646252,"S33 IDS Västerås 0864 - Volvo; 721 22; "
13.14055,59.36756,"S37 IDS Grums 0828 - OKQ8; 664 34; "
13.852857,59.390855,"S38 IDS Väse 0808 - OKQ8; 660 57; "
15.40736,60.46993,"S45 IDS Borlänge 0877 - Jale Åkeri AB; 781 70; "
16.966858,61.073471,"S47 IDS Tönnebro 0845 - OKQ8; 826 22; "
16.3813,61.344055,"S48 IDS Bollnäs 0821 - Volvo; 821 10; "
17.201,62.2957,"S50 IDS Timrå 0802 - OKQ8 Detaljhandel AB; 861 36; "
16.462105,62.440466,"S51 IDS Stöde 0859 - Västra Edebovägen 31; 860 13; "
17.678768,62.989883,"S52 IDS Kramfors 0852 - Kramfors Fordonsuthyrning; 873 30; "
14.429835,63.328159,"S53 IDS Krokom 0854 - OKQ8; 835 32; "
14.68361,63.16978,"S54 IDS Östersund 0887 - Volvo; 831 25; "
20.96193,64.73642,"S57 IDS Skellefteå 0833 - Volvo; 931 27; "
21.414355,65.319189,"S58 IDS Piteå 0840 - Volvo; 941 28; "
16.683633,64.61384,"S63 IDS Vilhelmina 0874 - Inlandsfrakt AB; 912 32; "
16.163914,64.109438,"S64 IDS Hoting 0879 - SCA Skog AB; 830 80; "
17.83097,59.45042,"S70 IDS Kallhäll 0883 - OKQ8; 176 75; "
15.816875,57.502515,"S72 IDS Hultsfred 0895 - Hultsfred Transporter AB; 577 35; "
17.36656,64.17541,"S75 IDS Åsele 0831 - Inlandsfrakt AB; S-916 60; "
18.701661,64.587752,"S79 IDS Lycksele 0842 - Transportbolaget i Norr AB; 921 45; "
18.33164,59.63401,"S91 IDS Roslagsstoppet 1441 - 186 96; "
17.368831,58.917434,"S95 IDS Sillekrog 1444 - OKQ8; 610 60; "
16.07868,58.56815,"S97 IDS Klinga 1429 - OKQ8; 605 97; "
14.66694,58.22525,"S98 IDS Östgötaporten 1401 - OKQ8; 599 94; "
13.140621,55.371127,"S108 IDS Trelleborg 1458 - Södra Nyhamnsgatan; 231 61; "
15.828239,59.427256,"S118 IDS Arboga Sätra 1462 - OKQ8 Mälarporten; 732 95; "
18.065464,59.758429,"S119 IDS Åby Krysset 1411 - Långhundra Transport; 741 95; "
15.06314,58.56109,"S121 IDS Motala 1464 - Volvo; 591 62; "
18.278306,59.492004,"S129 IDS Åkersberga 1414 - Åkersberga LBC; 184 21; "
18.021697,59.299786,"S133 IDS Årsta 1466 - Kyl & Frys Expressen Lastkajen AB; 117 43; "
17.555509,59.564925,"S134 IDS Bålsta 1424 - MLT AB; 746 50; "
13.056316,55.628482,"S135 IDS Malmö 1468 - Volvo; 211 24; "
20.246923,63.81469,"S139 IDS Umeå 1473 - Volvo; 901 24; "
13.18922,58.492475,"S140 IDS Lidköping 1474 - Volvo; 531 16; "
17.67882,59.855557,"S142 IDS Uppsala 1472 - Volvo; 751 23; "
17.927831,59.433626,"S143 IDS Sollentuna 1470 - Volvo; 191 26; "
13.558648,59.378637,"S145 IDS Karlstad 1477 - Volvo; 652 21; "
14.15838,57.67821,"S146 IDS Torsvik 1479 - IDS Jönköping; 553 39; "
18.743839,63.30333,"S147 IDS Örnsköldsvik 1476 - Volvo; 591 24; "
17.90605,59.26191,"S148 IDS Kungens Kurva 1478 - Volvo; 141 75; "
14.947875,58.033327,"S149 IDS Tranås 1480 - Volvo; 573 92; "
11.859529,59.504972,"S152 IDS Töcksfors 1483 - Ståltorpsvägen 11; 670 10; "
20.141688,63.848421,"S153 IDS Umeå  1469 - Milles Åkeri AB; 901 37; "
13.470966,56.367099,"S154 IDS Skånes Fagerhult 1488 - Sjuttio 3an; 280 40; "
12.77994,56.04525,"S157 IDS Helsingborg 1490 - Br Iborn AB; 256 69; "
15.67826,58.42235,"S158 IDS Linköping 1491 - Fångögatan 4; 582 78; "
16.180638,58.603505,"S159 IDS Norrköping  1492 - Volvo; 601 05; "
15.638551,58.418177,"S160 IDS Linköping Rejmes 1493 - Volvo; 581 03; "
15.230311,59.301013,"S161 IDS Örebro  1494 - Volvo; 703 69; "
11.813088,57.702712,"S162 IDS Göteborg; Arendal 1495 - Terminalvägen/Hamnviksvägen; 418 79; "
17.72917,59.84415,"S163 IDS Uppsala Kumla 1496 - OKQ8; 75454; "
12.9788442,57.7214757,"S164 IDS Borås 1497 - Borås Bil AB; 507 50; "
14.0022467,57.1758285,"S165 IDS Värnamo 1498 - Sandahlsbolagen AB; 331 53; "
14.5154213,56.3081942,"S166 IDS Olofström 1499 - Sandahls Fulload AB; 293 91; "
22.0428519,65.624034,"S167 IDS Luleå 1650 - Sandahlsbolagen Goods & Parcel AB; 973 45; "
12.2404442,58.3391499,"S168 IDS Trestads Center 1652 - Trestads Center; 462 73; "
20.2044022,63.8541625,"S169 IDS Umeå 1655 - Kabelvägen 6; 901 33; "
14.16206,57.74611,"S170 IDS Jönköping 1657 - Finnvedens Lastvagnar AB; 553 02; "
